BEIDOU-2 IGSO-1         
1 36828U 10036A   26078.94574244 -.00000103  00000+0  00000+0 0  9992
2 36828  54.2916 163.7709 0054955 219.8858 238.0541  1.00248068 57204
BEIDOU-2 IGSO-4         
1 37763U 11038A   26081.85146162 -.00000060  00000+0  00000+0 0  9994
2 37763  54.5875 166.4570 0156205 231.2289 182.9636  1.00262119 53787
BEIDOU-2 M3             
1 38250U 12018A   26082.27549411 -.00000033  00000+0  00000+0 0  9996
2 38250  55.8307 307.7721 0020425 279.7739  80.0389  1.86230016 94347
BEIDOU-2 M4             
1 38251U 12018B   26082.20766840 -.00000032  00000+0  00000+0 0  9996
2 38251  55.7315 306.9953 0011831 286.8996  73.0135  1.86229613 94341
BEIDOU-3 M18            
1 43707U 18093B   26081.18594573  .00000031  00000+0  00000+0 0  9993
2 43707  54.1700 185.2402 0006137 334.8391  25.1479  1.86226297 49914
BEIDOU-3 IGSO-1         
1 44204U 19023A   26082.87758535 -.00000212  00000+0  00000+0 0  9999
2 44204  58.5820  38.5272 0025163 236.6463 340.7025  1.00264470  6357
BEIDOU-3 IGSO-2         
1 44337U 19035A   26057.68879618 -.00000176  00000+0  00000+0 0  9995
2 44337  55.2338 159.8353 0038734 206.4752 153.7223  1.00247364 24561
BEIDOU-3 IGSO-3         
1 44709U 19073A   26078.95939699 -.00000158  00000+0  00000+0 0  9999
2 44709  54.9530 281.8597 0040863 188.6782 171.2597  1.00264421 23561
CAPELLA-11 (ACADIA-1)   
1 57693U 23126A   26082.72728299  .00002942  00000+0  40513-3 0  9990
2 57693  53.0062 194.5789 0001804 151.5429 208.5647 14.80964113139452
CAPELLA-14 (ACADIA-4)   
1 59444U 24066C   26082.78427219  .00016935  00000+0  10071-2 0  9996
2 59444  45.6046 345.8216 0005656 198.6037 161.4643 15.11124421 99553
CAPELLA-13 (ACADIA-3)   
1 60419U 24142A   26082.23857185  .00004028  00000+0  46406-3 0  9996
2 60419  53.0046  72.7299 0001416  80.6134 279.5006 14.87644967 87617
CAPELLA-15 (ACADIA-5)   
1 60544U 24149CE  26082.70466993  .00008243  00000+0  80892-3 0  9997
2 60544  97.6812 157.7205 0003341  19.6622 340.4726 14.92446729 87108
BEIDOU-3 M25            
1 61186U 24168B   26082.89068159 -.00000032  00000+0  00000+0 0  9991
2 61186  54.5489 305.2065 0003866 319.7829 271.3839  1.86229796 10196
CAPELLA-17 (ACADIA-7)   
1 64583U 25135BH  26082.86622114  .00009345  00000+0  94777-3 0  9997
2 64583  97.7583 197.8128 0004328 273.8465  86.2258 14.91090217 41139
CAPELLA-16 (ACADIA-6)   
1 65318U 25188D   26082.70455886  .00007913  00000+0  75257-3 0  9996
2 65318  97.7388 159.1119 0005696 153.6438 206.5072 14.93702919 31157
CAPELLA-19 (ACADIA-9)   
1 67384U 26004X   26082.92093083  .00005457  00000+0  62033-3 0  9999
2 67384  97.8025  82.8515 0001664  91.9799 268.1607 14.86656972 10602
CAPELLA-18 (ACADIA-8)   
1 67385U 26004Y   26082.91667824  .00060332  00000+0  66283-2 0  9992
2 67385  97.8025  82.9660 0001807  95.2906 137.6911 14.87360263  3786
