[ {"OBJECT_NAME": "CAPELLA-11 (ACADIA-1)", "NORAD_CAT_ID": 57693, "MEAN_MOTION": 14.80964113, "ECCENTRICITY": 0.0001804, "INCLINATION": 53.0062, "RA_OF_ASC_NODE": 194.5789, "ARG_OF_PERICENTER": 151.5429, "MEAN_ANOMALY": 208.5647, "BSTAR": 0.00040513, "EPOCH": "2026-03-23T17:27:17"}, {"OBJECT_NAME": "CAPELLA-14 (ACADIA-4)", "NORAD_CAT_ID": 59444, "MEAN_MOTION": 15.11124421, "ECCENTRICITY": 0.0005656, "INCLINATION": 45.6046, "RA_OF_ASC_NODE": 345.8216, "ARG_OF_PERICENTER": 198.6037, "MEAN_ANOMALY": 161.4643, "BSTAR": 0.0010071, "EPOCH": "2026-03-23T18:49:21"}, {"OBJECT_NAME": "CAPELLA-15 (ACADIA-5)", "NORAD_CAT_ID": 60544, "MEAN_MOTION": 14.92446729, "ECCENTRICITY": 0.0003341, "INCLINATION": 97.6812, "RA_OF_ASC_NODE": 157.7205, "ARG_OF_PERICENTER": 19.6622, "MEAN_ANOMALY": 340.4726, "BSTAR": 0.00080892, "EPOCH": "2026-03-23T16:54:43"}, {"OBJECT_NAME": "CAPELLA-17 (ACADIA-7)", "NORAD_CAT_ID": 64583, "MEAN_MOTION": 14.91090217, "ECCENTRICITY": 0.0004328, "INCLINATION": 97.7583, "RA_OF_ASC_NODE": 197.8128, "ARG_OF_PERICENTER": 273.8465, "MEAN_ANOMALY": 86.2258, "BSTAR": 0.00094777, "EPOCH": "2026-03-23T20:47:21"}, {"OBJECT_NAME": "CAPELLA-13 (ACADIA-3)", "NORAD_CAT_ID": 60419, "MEAN_MOTION": 14.87644967, "ECCENTRICITY": 0.0001416, "INCLINATION": 53.0046, "RA_OF_ASC_NODE": 72.7299, "ARG_OF_PERICENTER": 80.6134, "MEAN_ANOMALY": 279.5006, "BSTAR": 0.00046405999999999997, "EPOCH": "2026-03-23T05:43:32"}, {"OBJECT_NAME": "CAPELLA-16 (ACADIA-6)", "NORAD_CAT_ID": 65318, "MEAN_MOTION": 14.93702919, "ECCENTRICITY": 0.0005696, "INCLINATION": 97.7388, "RA_OF_ASC_NODE": 159.1119, "ARG_OF_PERICENTER": 153.6438, "MEAN_ANOMALY": 206.5072, "BSTAR": 0.0007525699999999999, "EPOCH": "2026-03-23T16:54:33"}, {"OBJECT_NAME": "CAPELLA-19 (ACADIA-9)", "NORAD_CAT_ID": 67384, "MEAN_MOTION": 14.86656972, "ECCENTRICITY": 0.0001664, "INCLINATION": 97.8025, "RA_OF_ASC_NODE": 82.8515, "ARG_OF_PERICENTER": 91.9799, "MEAN_ANOMALY": 268.1607, "BSTAR": 0.0006203300000000001, "EPOCH": "2026-03-23T22:06:08"}, {"OBJECT_NAME": "CAPELLA-18 (ACADIA-8)", "NORAD_CAT_ID": 67385, "MEAN_MOTION": 14.87360263, "ECCENTRICITY": 0.0001807, "INCLINATION": 97.8025, "RA_OF_ASC_NODE": 82.966, "ARG_OF_PERICENTER": 95.2906, "MEAN_ANOMALY": 137.6911, "BSTAR": 0.0066283, "EPOCH": "2026-03-23T22:00:00"}, {"OBJECT_NAME": "BEIDOU-3 IGSO-2 (C39)", "NORAD_CAT_ID": 44337, "MEAN_MOTION": 1.00247364, "ECCENTRICITY": 0.0038734, "INCLINATION": 55.2338, "RA_OF_ASC_NODE": 159.8353, "ARG_OF_PERICENTER": 206.4752, "MEAN_ANOMALY": 153.7223, "BSTAR": 0.0, "EPOCH": "2026-02-26T16:31:51"}, {"OBJECT_NAME": "BEIDOU-3 IGSO-3 (C40)", "NORAD_CAT_ID": 44709, "MEAN_MOTION": 1.00264421, "ECCENTRICITY": 0.0040863, "INCLINATION": 54.953, "RA_OF_ASC_NODE": 281.8597, "ARG_OF_PERICENTER": 188.6782, "MEAN_ANOMALY": 171.2597, "BSTAR": 0.0, "EPOCH": "2026-03-19T23:01:31"}, {"OBJECT_NAME": "BEIDOU-3 IGSO-1 (C38)", "NORAD_CAT_ID": 44204, "MEAN_MOTION": 1.0026447, "ECCENTRICITY": 0.0025163, "INCLINATION": 58.582, "RA_OF_ASC_NODE": 38.5272, "ARG_OF_PERICENTER": 236.6463, "MEAN_ANOMALY": 340.7025, "BSTAR": 0.0, "EPOCH": "2026-03-23T21:03:43"}, {"OBJECT_NAME": "BEIDOU-2 M4 (C12)", "NORAD_CAT_ID": 38251, "MEAN_MOTION": 1.86229613, "ECCENTRICITY": 0.0011831, "INCLINATION": 55.7315, "RA_OF_ASC_NODE": 306.9953, "ARG_OF_PERICENTER": 286.8996, "MEAN_ANOMALY": 73.0135, "BSTAR": 0.0, "EPOCH": "2026-03-23T04:59:02"}, {"OBJECT_NAME": "BEIDOU-2 M3 (C11)", "NORAD_CAT_ID": 38250, "MEAN_MOTION": 1.86230016, "ECCENTRICITY": 0.0020425, "INCLINATION": 55.8307, "RA_OF_ASC_NODE": 307.7721, "ARG_OF_PERICENTER": 279.7739, "MEAN_ANOMALY": 80.0389, "BSTAR": 0.0, "EPOCH": "2026-03-23T06:36:42"}, {"OBJECT_NAME": "BEIDOU-2 IGSO-1 (C06)", "NORAD_CAT_ID": 36828, "MEAN_MOTION": 1.00248068, "ECCENTRICITY": 0.0054955, "INCLINATION": 54.2916, "RA_OF_ASC_NODE": 163.7709, "ARG_OF_PERICENTER": 219.8858, "MEAN_ANOMALY": 238.0541, "BSTAR": 0.0, "EPOCH": "2026-03-19T22:41:52"}, {"OBJECT_NAME": "BEIDOU-2 IGSO-4 (C09)", "NORAD_CAT_ID": 37763, "MEAN_MOTION": 1.00262119, "ECCENTRICITY": 0.0156205, "INCLINATION": 54.5875, "RA_OF_ASC_NODE": 166.457, "ARG_OF_PERICENTER": 231.2289, "MEAN_ANOMALY": 182.9636, "BSTAR": 0.0, "EPOCH": "2026-03-22T20:26:06"}, {"OBJECT_NAME": "BEIDOU-3 M25 (C47)", "NORAD_CAT_ID": 61186, "MEAN_MOTION": 1.86229796, "ECCENTRICITY": 0.0003866, "INCLINATION": 54.5489, "RA_OF_ASC_NODE": 305.2065, "ARG_OF_PERICENTER": 319.7829, "MEAN_ANOMALY": 271.3839, "BSTAR": 0.0, "EPOCH": "2026-03-23T21:22:34"}, {"OBJECT_NAME": "BEIDOU-3 M18 (C37)", "NORAD_CAT_ID": 43707, "MEAN_MOTION": 1.86226297, "ECCENTRICITY": 0.0006137, "INCLINATION": 54.17, "RA_OF_ASC_NODE": 185.2402, "ARG_OF_PERICENTER": 334.8391, "MEAN_ANOMALY": 25.1479, "BSTAR": 0.0, "EPOCH": "2026-03-22T04:27:45"}]